{"fetched_at":"2026-06-08T18:26:03Z","count":4361,"tles":[{"name":"QPS-SAR-15 (SUKUNAMI-I)","line1":"1 67228U 25307A   26158.64408184  .00005041  00000+0  42423-3 0  9996","line2":"2 67228  42.0062 280.3033 0011272 291.1173  68.8447 14.98923765 25252","category":"Other"},{"name":"QPS-SAR-5 (TSUKUYOMI-I)","line1":"1 58578U 23196A   26159.18370008  .00013232  00000+0  56500-3 0  9993","line2":"2 58578  42.0099  67.1661 0026764 224.4513 135.4172 15.22391047136874","category":"Other"},{"name":"QPS-SAR-8 (AMATERU-IV)","line1":"1 60542U 24149CC  26159.14601304  .00004889  00000+0  35769-3 0  9990","line2":"2 60542  97.6667 238.3724 0004872 126.5888 233.5787 15.04049602 98911","category":"Other"},{"name":"QPS-SAR-11 (YAMATSUMI-I)","line1":"1 64340U 25125A   26158.94531470  .00005072  00000+0  39894-3 0  9996","line2":"2 64340  42.0073 242.7308 0008750  64.0247 296.1480 15.01541231 54231","category":"Other"},{"name":"QPS-SAR-7 (TSUKUYOMI-II)","line1":"1 59447U 24066F   26159.09769259  .00008246  00000+0  53124-3 0  9994","line2":"2 59447  45.6045 293.0372 0002868 267.9783  92.0773 15.08819736118856","category":"Other"},{"name":"QPS-SAR-14 (YACHIHOKO-I)","line1":"1 66316U 25252A   26157.80505597  .00004389  00000+0  36502-3 0  9990","line2":"2 66316  42.0028 188.8958 0006463 202.4401 157.6143 14.99608055 31951","category":"Other"},{"name":"QPS-SAR-9 (SUSANOO-I)","line1":"1 63205U 25050A   26159.01502219  .00005191  00000+0  39231-3 0  9997","line2":"2 63205  42.0179 152.9193 0002704  93.2331 266.8805 15.03054217 67584","category":"Other"},{"name":"QPS-SAR-10 (WADATSUMI-I)","line1":"1 64055U 25104A   26158.94383124  .00005511  00000+0  42997-3 0  9993","line2":"2 64055  42.0054 329.9603 0014043 278.3140  81.6094 15.01697167 58044","category":"Other"},{"name":"FENGYUN 3E","line1":"1 49008U 21062A   26159.18192604 -.00000063  00000+0 -88176-5 0  9991","line2":"2 49008  98.7497 162.6906 0002741 100.7056 259.4429 14.19903505255307","category":"Weather"},{"name":"QPS-SAR-6 (AMATERU-III)","line1":"1 56951U 23084V   24322.02473709  .24235158  25893-5  52158-3 0  9994","line2":"2 56951  97.5138  91.3061 0010762 291.6079 162.9865 16.46029303 80033","category":"Other"},{"name":"SHIYAN-30 02","line1":"1 65852U 25222B   26158.72208779  .00002571  00000+0  25265-3 0  9990","line2":"2 65852  34.9979 318.8618 0002472  23.2742 336.8075 14.91813726 37609","category":"Other"},{"name":"GAOFEN-3","line1":"1 41727U 16049A   26159.20358588 -.00000070  00000+0 -79624-5 0  9994","line2":"2 41727  98.4016 167.1254 0001204  99.2902 260.8424 14.42214054517359","category":"Other"},{"name":"GAOFEN-3 03","line1":"1 52200U 22035A   26159.21052561 -.00000093  00000+0 -14946-4 0  9997","line2":"2 52200  98.4066 167.9213 0001093  96.4445 263.6869 14.42213582219552","category":"Other"},{"name":"METEOR-M2 2","line1":"1 44387U 19038A   26159.18291161 -.00000247  00000+0 -87183-4 0  9994","line2":"2 44387  98.9147 146.3358 0002309  61.5914 298.5497 14.24362375360017","category":"Weather"},{"name":"ELO-3","line1":"1 56216U 23054AQ  23362.26627311  .00038931  00000+0  11618-2 0  9990","line2":"2 56216  97.3804 255.4801 0007202  60.4136  64.8493 15.34501844 39707","category":"Other"},{"name":"FORMOSAT-5","line1":"1 42920U 17049A   26159.15662144  .00000171  00000+0  54274-4 0  9994","line2":"2 42920  98.2253 234.6668 0012660 109.2182 251.0384 14.50895557465367","category":"Other"},{"name":"FORMOSAT 7-1","line1":"1 44349U 19036L   26159.11203166  .00003048  00000+0  23604-3 0  9998","line2":"2 44349  23.9977  93.5711 0001040  81.4827 278.5792 14.96467702383295","category":"Other"},{"name":"FORMOSAT-8A","line1":"1 66666U 25276A   26159.13889212  .00001645  00000+0  13412-3 0  9998","line2":"2 66666  97.6545 233.5193 0003924 307.7201  52.3667 15.00826521 28708","category":"Other"},{"name":"SHIJIAN-20 (SJ-20)","line1":"1 44910U 19097A   26159.01146691  .00000151  00000+0  00000+0 0  9990","line2":"2 44910   4.8946  75.1748 0013806  52.9393 177.1972  1.00274774 23609","category":"Other"},{"name":"TJS-15","line1":"1 63157U 25045A   26158.72072588 -.00000249  00000+0  00000+0 0  9993","line2":"2 63157   0.2768  85.4125 0005413 298.5865 225.9531  1.00268269  4665","category":"Other"},{"name":"YAOGAN-11","line1":"1 37165U 10047A   26159.13797282  .00000803  00000+0  10775-3 0  9999","line2":"2 37165  98.3867  24.8142 0033396 271.5417  88.1969 14.82070134846758","category":"Other"},{"name":"OSCAR 7 (AO-7)","line1":"1 07530U 74089B   26158.97777992 -.00000041  00000+0  32521-4 0  9994","line2":"2 07530 101.9901 172.1282 0012482 147.3019 326.2175 12.53697915359363","category":"Other"},{"name":"RADFXSAT (FOX-1B)","line1":"1 43017U 17073E   26158.88082012  .00009506  00000+0  41497-3 0  9991","line2":"2 43017  97.4721  26.2863 0150955   1.5297 358.6365 15.12564477463981","category":"Other"},{"name":"RS-44 & BREEZE-KM R/B","line1":"1 44909U 19096E   26159.01431068  .00000019  00000+0  26984-4 0  9999","line2":"2 44909  82.5217 345.8017 0217756 165.5613 195.1847 12.79748641301172","category":"Other"},{"name":"GSAT0207 (GALILEO 15)","line1":"1 41859U 16069A   26158.36004663  .00000025  00000+0  00000+0 0  9994","line2":"2 41859  55.4931 101.3582 0005449 327.1947  32.7456  1.70473644 59233","category":"GPS"},{"name":"USA 325","line1":"1 51281U 22006B   26006.70962434 -.00000360  00000+0  00000+0 0  9994","line2":"2 51281   0.1656  83.9928 0022746 181.1199 218.2610  1.00266333 14512","category":"Military"},{"name":"IRIDIUM 113","line1":"1 42803U 17039A   26159.17045375  .00000142  00000+0  43635-4 0  9993","line2":"2 42803  86.3964 325.9490 0002311  90.0902 270.0558 14.34217849469890","category":"Other"},{"name":"SHIJIAN-23 (SJ-23)","line1":"1 55131U 23002A   26158.75676480 -.00000184  00000+0  00000+0 0  9999","line2":"2 55131   3.6923  78.4314 0003860 275.9354 328.5432  1.00090135 12413","category":"Other"},{"name":"COSMOS 2589","line1":"1 64467U 25131A   26158.75242078 -.00000276  00000+0  00000+0 0  9990","line2":"2 64467   0.0438  71.9827 0001205  72.8146 120.2091  1.00272244  3464","category":"Other"},{"name":"EWS-G1 (GOES 13)","line1":"1 29155U 06018A   26105.84456892 -.00000067  00000+0  00000+0 0  9999","line2":"2 29155   4.3708  77.1567 0061646 275.3439 177.5008  0.98787424 42637","category":"Weather"},{"name":"RADARSAT-2","line1":"1 32382U 07061A   26159.15151369 -.00000055  00000+0 -43036-5 0  9998","line2":"2 32382  98.5782 166.2132 0001299  81.0518 279.0811 14.29982548964665","category":"Other"},{"name":"COSMOS 2590","line1":"1 64527U 25131D   26159.14177937 -.00000266  00000+0  00000+0 0  9991","line2":"2 64527   0.4232  76.3428 3653661  24.4134 307.4635  1.00234856  3511","category":"Other"},{"name":"WORLDVIEW-3 (WV-3)","line1":"1 40115U 14048A   26159.13835841  .00000875  00000+0  10881-3 0  9994","line2":"2 40115  97.8565 234.0961 0001671  39.6239 320.5097 14.85007339640562","category":"Other"},{"name":"XW-2D","line1":"1 40907U 15049J   24320.68015241  .09409915  25999-5  78700-3 0  9998","line2":"2 40907  97.4241 349.3884 0007364 248.0163 112.0353 16.39691129508423","category":"Other"},{"name":"ZHUHAI-1 02 (CAS-4B)","line1":"1 42759U 17034B   25286.97241530  .03437790  89859-5  10544-2 0  9999","line2":"2 42759  42.9888 273.3261 0008256 129.3938 230.7682 16.25684504462559","category":"Other"},{"name":"COSMOS 2428","line1":"1 31792U 07029A   26159.01101266 -.00000174  00000+0 -67939-4 0  9991","line2":"2 31792  70.9375  13.7451 0007234 152.6375 207.5129 14.12930113976857","category":"Other"},{"name":"XW-2E","line1":"1 40909U 15049L   24087.62928659  .05897192  25132-5  13505-2 0  9994","line2":"2 40909  97.3913 118.4708 0007580 230.0283 130.0347 16.29994760473389","category":"Other"},{"name":"XW-2F","line1":"1 40910U 15049M   24092.20923921  .16747303  26701-5  28112-3 0  9997","line2":"2 40910  97.4046 122.6776 0010391 231.3491 128.6883 16.47481859473827","category":"Other"},{"name":"ZHUHAI-1 01 (CAS-4A)","line1":"1 42761U 17034D   25281.34159269  .04203186  90411-5  12507-2 0  9993","line2":"2 42761  42.9927 303.5081 0008135  81.2710 278.9099 16.26032227461692","category":"Other"},{"name":"XW-2B","line1":"1 40911U 15049N   24327.12055396  .12214391  26469-5  35889-3 0  9994","line2":"2 40911  97.4275 356.1976 0007819 246.3878 113.6603 16.44746485509295","category":"Other"},{"name":"NAYIF-1 (EO-88)","line1":"1 42017U 17008BX  23198.64389602  .03845235  23435-5  12955-2 0  9997","line2":"2 42017  97.1939 272.0619 0014074 261.3029  98.6670 16.25423645358325","category":"Other"},{"name":"SMOG-1","line1":"1 47964U 21022AJ  24209.98015345  .12039603  26070-5  10242-2 0  9994","line2":"2 47964  97.4276 125.0060 0011656 220.2318 139.8119 16.39369715184698","category":"Other"},{"name":"WORLDVIEW-2 (WV-2)","line1":"1 35946U 09055A   26159.11760310  .00000131  00000+0  57952-4 0  9994","line2":"2 35946  98.4736 232.6920 0003253 241.2503 118.8358 14.37896886874340","category":"Other"},{"name":"TEVEL-2","line1":"1 51069U 22002CP  24216.00861934  .05108148  24423-5  15386-2 0  9995","line2":"2 51069  97.3472 295.3558 0015525 263.3273  96.6253 16.26651726142466","category":"Other"},{"name":"GREENCUBE","line1":"1 53106U 22080B   25051.21822557 -.00000003  00000+0  00000+0 0  9994","line2":"2 53106  70.1434 106.3440 0008542  48.0089 312.1297  6.42557744 61200","category":"Other"},{"name":"SHIJIAN-29A (SJ-29A)","line1":"1 67302U 25315A   26158.73537781 -.00000052  00000+0  00000+0 0  9993","line2":"2 67302   3.3727  95.3464 0003287  21.0962 117.6765  1.00269963  1520","category":"Other"},{"name":"CHOMPTT","line1":"1 43855U 18104G   24134.10951713  .07815800 -14920-5  72575-3 0  9990","line2":"2 43855  84.9879 294.4476 0011122 263.9277  96.0761 16.38682570302102","category":"Other"},{"name":"XW-2C","line1":"1 40906U 15049H   25047.62605869  .06460715  25777-5  82494-3 0  9990","line2":"2 40906  97.4284  83.7622 0006300 238.5188 121.5494 16.35922890522636","category":"Other"}]}